CZ-2C R/B               
1 54039U 22132E   26052.47430348  .00044066  00000+0  53264-3 0  9991
2 54039  97.2965  55.3191 0020172 143.8618 216.4007 15.60343936187846
GSLV R/B                
1 54149U 22138AN  26052.40729318  .00003736  00000+0  32408-3 0  9996
2 54149  87.3881 171.8104 0020639 205.2307 154.7918 14.96642147181493
XRISM                   
1 57800U 23137A   26052.32821932  .00005513  00000+0  31376-3 0  9997
2 57800  31.0033  29.4689 0008268 236.1766 123.8086 15.11281678135316
ACS3                    
1 59588U 24077B   26052.43648342  .00014350  00000+0  11760-1 0  9992
2 59588  97.2163 357.2037 0049617 123.5008 237.0911 13.88865456 91948
SZ-21 MODULE            
1 66515U 25246C   26052.38477211  .00035146  00000+0  31960-3 0  9990
2 66515  41.4754 303.6299 0001649 294.6489  65.4180 15.67228178 15517
